CCSDS_OMM_VERS = 2.0
CREATION_DATE  = 
ORIGINATOR     = 

OBJECT_NAME    = ATLAS CENTAUR R/B
OBJECT_ID      = 1972-065B
CENTER_NAME    = EARTH
REF_FRAME      = TEME
TIME_SYSTEM    = UTC
MEAN_ELEMENT_THEORY = SGP/SGP4

EPOCH          = 2025-10-29T20:46:51.267360
MEAN_MOTION    = 14.77233335
ECCENTRICITY   = .00339597
INCLINATION    = 35.0030
RA_OF_ASC_NODE = 352.1681
ARG_OF_PERICENTER = 348.6799
MEAN_ANOMALY   = 11.3136

EPHEMERIS_TYPE = 0
CLASSIFICATION_TYPE = U
NORAD_CAT_ID   = 6155
ELEMENT_SET_NO = 999
REV_AT_EPOCH   = 82190
BSTAR          = .26772049E-3
MEAN_MOTION_DOT = .1923E-4
MEAN_MOTION_DDOT = 0

CCSDS_OMM_VERS = 2.0
CREATION_DATE  = 
ORIGINATOR     = 

OBJECT_NAME    = SL-8 R/B
OBJECT_ID      = 1975-112B
CENTER_NAME    = EARTH
REF_FRAME      = TEME
TIME_SYSTEM    = UTC
MEAN_ELEMENT_THEORY = SGP/SGP4

EPOCH          = 2025-10-31T06:11:32.646336
MEAN_MOTION    = 14.38103459
ECCENTRICITY   = .00152333
INCLINATION    = 74.0599
RA_OF_ASC_NODE = 256.9919
ARG_OF_PERICENTER = 15.7127
MEAN_ANOMALY   = 344.4497

EPHEMERIS_TYPE = 0
CLASSIFICATION_TYPE = U
NORAD_CAT_ID   = 8459
ELEMENT_SET_NO = 999
REV_AT_EPOCH   = 61326
BSTAR          = .13427545E-3
MEAN_MOTION_DOT = .381E-5
MEAN_MOTION_DDOT = 0

CCSDS_OMM_VERS = 2.0
CREATION_DATE  = 
ORIGINATOR     = 

OBJECT_NAME    = SL-3 R/B
OBJECT_ID      = 1977-057B
CENTER_NAME    = EARTH
REF_FRAME      = TEME
TIME_SYSTEM    = UTC
MEAN_ELEMENT_THEORY = SGP/SGP4

EPOCH          = 2025-10-31T06:11:46.414176
MEAN_MOTION    = 15.41603927
ECCENTRICITY   = .00085243
INCLINATION    = 97.5678
RA_OF_ASC_NODE = 105.9809
ARG_OF_PERICENTER = 37.6008
MEAN_ANOMALY   = 322.5833

EPHEMERIS_TYPE = 0
CLASSIFICATION_TYPE = U
NORAD_CAT_ID   = 10114
ELEMENT_SET_NO = 999
REV_AT_EPOCH   = 64836
BSTAR          = .34153381E-3
MEAN_MOTION_DOT = .14304E-3
MEAN_MOTION_DDOT = 0

CCSDS_OMM_VERS = 2.0
CREATION_DATE  = 
ORIGINATOR     = 

OBJECT_NAME    = SEASAT 1
OBJECT_ID      = 1978-064A
CENTER_NAME    = EARTH
REF_FRAME      = TEME
TIME_SYSTEM    = UTC
MEAN_ELEMENT_THEORY = SGP/SGP4

EPOCH          = 2025-10-31T06:37:05.744352
MEAN_MOTION    = 14.45988838
ECCENTRICITY   = .00025968
INCLINATION    = 108.0048
RA_OF_ASC_NODE = 213.9652
ARG_OF_PERICENTER = 261.7350
MEAN_ANOMALY   = 98.3501

EPHEMERIS_TYPE = 0
CLASSIFICATION_TYPE = U
NORAD_CAT_ID   = 10967
ELEMENT_SET_NO = 999
REV_AT_EPOCH   = 48780
BSTAR          = .18753472E-3
MEAN_MOTION_DOT = .532E-5
MEAN_MOTION_DDOT = 0

CCSDS_OMM_VERS = 2.0
CREATION_DATE  = 
ORIGINATOR     = 

OBJECT_NAME    = SL-14 R/B
OBJECT_ID      = 1979-011B
CENTER_NAME    = EARTH
REF_FRAME      = TEME
TIME_SYSTEM    = UTC
MEAN_ELEMENT_THEORY = SGP/SGP4

EPOCH          = 2025-10-31T06:15:22.299264
MEAN_MOTION    = 14.91689506
ECCENTRICITY   = .00173487
INCLINATION    = 82.5262
RA_OF_ASC_NODE = 219.3214
ARG_OF_PERICENTER = 126.1716
MEAN_ANOMALY   = 234.1112

EPHEMERIS_TYPE = 0
CLASSIFICATION_TYPE = U
NORAD_CAT_ID   = 11267
ELEMENT_SET_NO = 999
REV_AT_EPOCH   = 50948
BSTAR          = .87814274E-4
MEAN_MOTION_DOT = .911E-5
MEAN_MOTION_DDOT = 0

CCSDS_OMM_VERS = 2.0
CREATION_DATE  = 
ORIGINATOR     = 

OBJECT_NAME    = SL-8 R/B
OBJECT_ID      = 1979-089B
CENTER_NAME    = EARTH
REF_FRAME      = TEME
TIME_SYSTEM    = UTC
MEAN_ELEMENT_THEORY = SGP/SGP4

EPOCH          = 2025-10-31T05:55:37.849440
MEAN_MOTION    = 14.42239985
ECCENTRICITY   = .00155737
INCLINATION    = 74.0690
RA_OF_ASC_NODE = 330.6280
ARG_OF_PERICENTER = 180.6697
MEAN_ANOMALY   = 179.4441

EPHEMERIS_TYPE = 0
CLASSIFICATION_TYPE = U
NORAD_CAT_ID   = 11574
ELEMENT_SET_NO = 999
REV_AT_EPOCH   = 41744
BSTAR          = .12783878E-3
MEAN_MOTION_DOT = .396E-5
MEAN_MOTION_DDOT = 0

CCSDS_OMM_VERS = 2.0
CREATION_DATE  = 
ORIGINATOR     = 

OBJECT_NAME    = SL-14 R/B
OBJECT_ID      = 1980-005B
CENTER_NAME    = EARTH
REF_FRAME      = TEME
TIME_SYSTEM    = UTC
MEAN_ELEMENT_THEORY = SGP/SGP4

EPOCH          = 2025-10-31T07:44:56.704992
MEAN_MOTION    = 14.90702697
ECCENTRICITY   = .00146348
INCLINATION    = 82.5143
RA_OF_ASC_NODE = 69.9175
ARG_OF_PERICENTER = 231.7009
MEAN_ANOMALY   = 128.2895

EPHEMERIS_TYPE = 0
CLASSIFICATION_TYPE = U
NORAD_CAT_ID   = 11672
ELEMENT_SET_NO = 999
REV_AT_EPOCH   = 45721
BSTAR          = .10496137E-3
MEAN_MOTION_DOT = .1056E-4
MEAN_MOTION_DDOT = 0

CCSDS_OMM_VERS = 2.0
CREATION_DATE  = 
ORIGINATOR     = 

OBJECT_NAME    = SL-8 R/B
OBJECT_ID      = 1981-003B
CENTER_NAME    = EARTH
REF_FRAME      = TEME
TIME_SYSTEM    = UTC
MEAN_ELEMENT_THEORY = SGP/SGP4

EPOCH          = 2025-10-31T06:39:59.295168
MEAN_MOTION    = 15.04729274
ECCENTRICITY   = .02842964
INCLINATION    = 82.9330
RA_OF_ASC_NODE = 49.2123
ARG_OF_PERICENTER = 267.0713
MEAN_ANOMALY   = 89.7951

EPHEMERIS_TYPE = 0
CLASSIFICATION_TYPE = U
NORAD_CAT_ID   = 12139
ELEMENT_SET_NO = 999
REV_AT_EPOCH   = 29517
BSTAR          = .69025192E-3
MEAN_MOTION_DOT = .24597E-3
MEAN_MOTION_DDOT = 0

CCSDS_OMM_VERS = 2.0
CREATION_DATE  = 
ORIGINATOR     = 

OBJECT_NAME    = SL-3 R/B
OBJECT_ID      = 1981-046B
CENTER_NAME    = EARTH
REF_FRAME      = TEME
TIME_SYSTEM    = UTC
MEAN_ELEMENT_THEORY = SGP/SGP4

EPOCH          = 2025-10-31T05:40:57.632160
MEAN_MOTION    = 15.38293188
ECCENTRICITY   = .00208482
INCLINATION    = 81.2312
RA_OF_ASC_NODE = 84.7259
ARG_OF_PERICENTER = 109.2982
MEAN_ANOMALY   = 251.0516

EPHEMERIS_TYPE = 0
CLASSIFICATION_TYPE = U
NORAD_CAT_ID   = 12465
ELEMENT_SET_NO = 999
REV_AT_EPOCH   = 41850
BSTAR          = .43208299E-3
MEAN_MOTION_DOT = .16467E-3
MEAN_MOTION_DDOT = 0

CCSDS_OMM_VERS = 2.0
CREATION_DATE  = 
ORIGINATOR     = 

OBJECT_NAME    = METEOR PRIRODA
OBJECT_ID      = 1981-065A
CENTER_NAME    = EARTH
REF_FRAME      = TEME
TIME_SYSTEM    = UTC
MEAN_ELEMENT_THEORY = SGP/SGP4

EPOCH          = 2025-10-31T05:35:00.268800
MEAN_MOTION    = 15.99086022
ECCENTRICITY   = .00013884
INCLINATION    = 97.4646
RA_OF_ASC_NODE = 7.3729
ARG_OF_PERICENTER = 309.0189
MEAN_ANOMALY   = 51.0965

EPHEMERIS_TYPE = 0
CLASSIFICATION_TYPE = U
NORAD_CAT_ID   = 12585
ELEMENT_SET_NO = 999
REV_AT_EPOCH   = 42398
BSTAR          = .78852321E-3
MEAN_MOTION_DOT = .378711E-2
MEAN_MOTION_DDOT = .62128221E-4

CCSDS_OMM_VERS = 2.0
CREATION_DATE  = 
ORIGINATOR     = 

OBJECT_NAME    = SL-3 R/B
OBJECT_ID      = 1981-103B
CENTER_NAME    = EARTH
REF_FRAME      = TEME
TIME_SYSTEM    = UTC
MEAN_ELEMENT_THEORY = SGP/SGP4

EPOCH          = 2025-10-31T06:16:33.200832
MEAN_MOTION    = 15.19511739
ECCENTRICITY   = .00176939
INCLINATION    = 81.1622
RA_OF_ASC_NODE = 5.0734
ARG_OF_PERICENTER = 21.6586
MEAN_ANOMALY   = 338.5389

EPHEMERIS_TYPE = 0
CLASSIFICATION_TYPE = U
NORAD_CAT_ID   = 12904
ELEMENT_SET_NO = 999
REV_AT_EPOCH   = 95356
BSTAR          = .31122185E-3
MEAN_MOTION_DOT = .666E-4
MEAN_MOTION_DDOT = 0

CCSDS_OMM_VERS = 2.0
CREATION_DATE  = 
ORIGINATOR     = 

OBJECT_NAME    = SL-3 R/B
OBJECT_ID      = 1982-013B
CENTER_NAME    = EARTH
REF_FRAME      = TEME
TIME_SYSTEM    = UTC
MEAN_ELEMENT_THEORY = SGP/SGP4

EPOCH          = 2025-10-31T06:30:38.964384
MEAN_MOTION    = 15.20535611
ECCENTRICITY   = .00215608
INCLINATION    = 81.1737
RA_OF_ASC_NODE = 312.3077
ARG_OF_PERICENTER = 254.7404
MEAN_ANOMALY   = 105.1444

EPHEMERIS_TYPE = 0
CLASSIFICATION_TYPE = U
NORAD_CAT_ID   = 13068
ELEMENT_SET_NO = 999
REV_AT_EPOCH   = 38467
BSTAR          = .24744068E-3
MEAN_MOTION_DOT = .547E-4
MEAN_MOTION_DDOT = 0

