ATLAS CENTAUR R/B       
1 06155U 72065B   25302.86587115  .00001923  00000+0  26772-3 0  9991
2 06155  35.0030 352.1681 0033959 348.6799  11.3136 14.77233335821904
SL-8 R/B                
1 08459U 75112B   25304.25801674  .00000381  00000+0  13428-3 0  9991
2 08459  74.0599 256.9919 0015233  15.7127 344.4497 14.38103459613261
SL-3 R/B                
1 10114U 77057B   25304.25817609  .00014304  00000+0  34153-3 0  9995
2 10114  97.5678 105.9809 0008524  37.6008 322.5833 15.41603927648367
SEASAT 1                
1 10967U 78064A   25304.27576093  .00000532  00000+0  18753-3 0  9997
2 10967 108.0048 213.9652 0002596 261.7350  98.3501 14.45988838487801
SL-14 R/B               
1 11267U 79011B   25304.26067476  .00000911  00000+0  87814-4 0  9999
2 11267  82.5262 219.3214 0017348 126.1716 234.1112 14.91689506509482
SL-8 R/B                
1 11574U 79089B   25304.24696585  .00000396  00000+0  12784-3 0  9992
2 11574  74.0690 330.6280 0015573 180.6697 179.4441 14.42239985417443
SL-14 R/B               
1 11672U 80005B   25304.32287853  .00001056  00000+0  10496-3 0  9996
2 11672  82.5143  69.9175 0014634 231.7009 128.2895 14.90702697457218
SL-8 R/B                
1 12139U 81003B   25304.27776962  .00024597  00000+0  69025-3 0  9999
2 12139  82.9330  49.2123 0284296 267.0713  89.7951 15.04729274295175
SL-3 R/B                
1 12465U 81046B   25304.23677815  .00016467  00000+0  43208-3 0  9993
2 12465  81.2312  84.7259 0020848 109.2982 251.0516 15.38293188418501
METEOR PRIRODA          
1 12585U 81065A   25304.23264200  .00378711  62128-4  78852-3 0  9997
2 12585  97.4646   7.3729 0001388 309.0189  51.0965 15.99086022423981
SL-3 R/B                
1 12904U 81103B   25304.26149538  .00006660  00000+0  31122-3 0  9990
2 12904  81.1622   5.0734 0017693  21.6586 338.5389 15.19511739953560
SL-3 R/B                
1 13068U 82013B   25304.27128431  .00005470  00000+0  24744-3 0  9993
2 13068  81.1737 312.3077 0021560 254.7404 105.1444 15.20535611384676
